Satellite: SHINAISAT
Catalog number: 39572
Epoch time:      14328.13084988
Element set:     447
Inclination:      064.9728 deg
RA of node:       197.0096 deg
Eccentricity:    0.0013534
Arg of perigee:   259.7861 deg
Mean anomaly:     100.1802 deg
Mean motion:   16.45181032 rev/day
Decay rate:  2.8848087e-01 rev/day^2
Epoch rev:            4240
Checksum:              324

Satellite: TEIKYOSAT
Catalog number: 39576
Epoch time:      14297.85867254
Element set:     437
Inclination:      064.9818 deg
RA of node:       300.5833 deg
Eccentricity:    0.0008491
Arg of perigee:   317.3597 deg
Mean anomaly:     044.3862 deg
Mean motion:   16.45008906 rev/day
Decay rate:   9.345816e-02 rev/day^2
Epoch rev:            3769
Checksum:              359

Satellite: CO-77
Catalog number: 39577
Epoch time:      14244.78324653
Element set:     379
Inclination:      064.9920 deg
RA of node:       123.7668 deg
Eccentricity:    0.0014904
Arg of perigee:   269.7208 deg
Mean anomaly:     091.1897 deg
Mean motion:   16.43552757 rev/day
Decay rate:  1.0543803e-01 rev/day^2
Epoch rev:            2938
Checksum:              363

Satellite: SPROUT
Catalog number: 39770
Epoch time:      15028.77467130
Element set:     265
Inclination:      097.8702 deg
RA of node:       127.5730 deg
Eccentricity:    0.0008824
Arg of perigee:   300.1262 deg
Mean anomaly:     059.9094 deg
Mean motion:   14.83355890 rev/day
Decay rate:      1.486e-05 rev/day^2
Epoch rev:            3696
Checksum:              317

Satellite: POPSAT-HIP1
Catalog number: 40028
Epoch time:      15029.47145498
Element set:     682
Inclination:      097.9682 deg
RA of node:       289.5408 deg
Eccentricity:    0.0013335
Arg of perigee:   278.4697 deg
Mean anomaly:     081.5026 deg
Mean motion:   14.86265830 rev/day
Decay rate:      1.803e-05 rev/day^2
Epoch rev:            3317
Checksum:              325

Satellite: EO-80
Catalog number: 40032
Epoch time:      15029.30570073
Element set:     662
Inclination:      097.9633 deg
RA of node:       289.1817 deg
Eccentricity:    0.0011387
Arg of perigee:   274.5690 deg
Mean anomaly:     085.4222 deg
Mean motion:   14.86002607 rev/day
Decay rate:      2.016e-05 rev/day^2
Epoch rev:            3315
Checksum:              286

Satellite: VELOX-1
Catalog number: 40057
Epoch time:      15029.52113068
Element set:     675
Inclination:      098.2288 deg
RA of node:       105.3458 deg
Eccentricity:    0.0010930
Arg of perigee:   326.3589 deg
Mean anomaly:     033.6929 deg
Mean motion:   14.75090952 rev/day
Decay rate:      1.771e-05 rev/day^2
Epoch rev:            3143
Checksum:              300

Satellite: DAURIA DX 1
Catalog number: 40071
Epoch time:      15029.55256015
Element set:     645
Inclination:      098.3748 deg
RA of node:       095.1844 deg
Eccentricity:    0.0008056
Arg of perigee:   331.1581 deg
Mean anomaly:     028.9195 deg
Mean motion:   14.80037938 rev/day
Decay rate:       8.23e-06 rev/day^2
Epoch rev:            3028
Checksum:              297

Satellite: UKUBE-1
Catalog number: 40074
Epoch time:      15029.53802150
Element set:     646
Inclination:      098.3758 deg
RA of node:       095.5556 deg
Eccentricity:    0.0004538
Arg of perigee:   345.2804 deg
Mean anomaly:     014.8291 deg
Mean motion:   14.81448896 rev/day
Decay rate:      1.697e-05 rev/day^2
Epoch rev:            3030
Checksum:              310

Satellite: CHASQUI-1
Catalog number: 40117
Epoch time:      15014.73322295
Element set:     472
Inclination:      051.6189 deg
RA of node:       112.4445 deg
Eccentricity:    0.0004239
Arg of perigee:   337.2783 deg
Mean anomaly:     022.7551 deg
Mean motion:   16.34635278 rev/day
Decay rate:   7.508583e-02 rev/day^2
Epoch rev:            2336
Checksum:              296

Satellite: HODOYOSHI-1
Catalog number: 40299
Epoch time:      15029.52528368
Element set:     260
Inclination:      097.4669 deg
RA of node:       112.8447 deg
Eccentricity:    0.0012117
Arg of perigee:   255.6045 deg
Mean anomaly:     229.3346 deg
Mean motion:   15.17934581 rev/day
Decay rate:      3.285e-05 rev/day^2
Epoch rev:            1276
Checksum:              312

Satellite: CHUBUSAT-1
Catalog number: 40300
Epoch time:      15029.50881659
Element set:     261
Inclination:      097.4638 deg
RA of node:       112.5398 deg
Eccentricity:    0.0021832
Arg of perigee:   255.9962 deg
Mean anomaly:     230.1926 deg
Mean motion:   15.15946679 rev/day
Decay rate:      4.423e-05 rev/day^2
Epoch rev:            1275
Checksum:              309

Satellite: QSAT-EOS
Catalog number: 40301
Epoch time:      15029.50488550
Element set:     281
Inclination:      097.4607 deg
RA of node:       112.2116 deg
Eccentricity:    0.0033107
Arg of perigee:   255.6142 deg
Mean anomaly:     230.8908 deg
Mean motion:   15.14007663 rev/day
Decay rate:      8.045e-05 rev/day^2
Epoch rev:            1273
Checksum:              259

