SHINAISAT
1 39572U 14009A   14328.13084988  .28848087  76253-5  66603-3 0  4474
2 39572 064.9728 197.0096 0013534 259.7861 100.1802 16.45181032 42403
TEIKYOSAT
1 39576U 14009E   14297.85867254  .09345816  76764-5  25176-3 0  4374
2 39576 064.9818 300.5833 0008491 317.3597 044.3862 16.45008906 37698
CO-77
1 39577U 14009F   14244.78324653  .10543803  76292-5  32273-3 0  3795
2 39577 064.9920 123.7668 0014904 269.7208 091.1897 16.43552757 29380
SPROUT
1 39770U 14029E   15028.77467130  .00001486  00000-0  18773-3 0  2657
2 39770 097.8702 127.5730 0008824 300.1262 059.9094 14.83355890 36968
POPSAT-HIP1
1 40028U 14033U   15029.47145498  .00001803  00000-0  21105-3 0  6827
2 40028 097.9682 289.5408 0013335 278.4697 081.5026 14.86265830 33170
EO-80
1 40032U 14033Y   15029.30570073  .00002016  00000-0  23685-3 0  6625
2 40032 097.9633 289.1817 0011387 274.5690 085.4222 14.86002607 33156
VELOX-1
1 40057U 14034E   15029.52113068  .00001771  00000-0  27043-3 0  6757
2 40057 098.2288 105.3458 0010930 326.3589 033.6929 14.75090952 31435
DAURIA DX 1
1 40071U 14037C   15029.55256015  .00000823  00000-0  11628-3 0  6455
2 40071 098.3748 095.1844 0008056 331.1581 028.9195 14.80037938 30285
UKUBE-1
1 40074U 14037F   15029.53802150  .00001697  00000-0  22409-3 0  6463
2 40074 098.3758 095.5556 0004538 345.2804 014.8291 14.81448896 30302
CHASQUI-1
1 40117U 98067ET  15014.73322295  .07508583  12315-4  10026-2 0  4726
2 40117 051.6189 112.4445 0004239 337.2783 022.7551 16.34635278 23368
HODOYOSHI-1
1 40299U 14070B   15029.52528368  .00003285  00000-0  16497-3 0  2601
2 40299 097.4669 112.8447 0012117 255.6045 229.3346 15.17934581 12762
CHUBUSAT-1
1 40300U 14070C   15029.50881659  .00004423  00000-0  23280-3 0  2611
2 40300 097.4638 112.5398 0021832 255.9962 230.1926 15.15946679 12750
QSAT-EOS
1 40301U 14070D   15029.50488550  .00008045  00000-0  44063-3 0  2813
2 40301 097.4607 112.2116 0033107 255.6142 230.8908 15.14007663 12732
